IRIDIUM 124             
1 42810U 17039H   26095.87917110  .00000453  00000+0  12865-3 0  9997
2 42810  86.4486 320.6147 0002153  88.7824 271.3624 14.43296232464683
IRIDIUM 128             
1 42811U 17039J   26095.85919724  .00000326  00000+0  10937-3 0  9996
2 42811  86.3963  55.3775 0002318  82.9696 277.1763 14.34216130459612
IRIDIUM 121             
1 42812U 17039K   26095.81771472  .00000037  00000+0  63209-5 0  9990
2 42812  86.4017  23.9054 0002231  84.5071 275.6379 14.34218831459452
IRIDIUM 133             
1 42955U 17061A   26095.82114302 -.00000172  00000+0 -68338-4 0  9996
2 42955  86.3956  55.5085 0002156  87.8501 272.2942 14.34217089444408
IRIDIUM 100             
1 42956U 17061B   26095.81479935  .00000062  00000+0  15244-4 0  9996
2 42956  86.3957  55.4310 0002221  89.0122 271.1328 14.34217956444405
IRIDIUM 122             
1 42957U 17061C   26095.85285489  .00000142  00000+0  43751-4 0  9993
2 42957  86.3960  55.4152 0002151  88.4406 271.7036 14.34217578444417
IRIDIUM 129             
1 42958U 17061D   26095.87822182  .00000357  00000+0  12056-3 0  9994
2 42958  86.3959  55.4709 0002048  79.3785 280.7641 14.34220073444436
IRIDIUM 119             
1 42959U 17061E   26095.63720720  .00000024  00000+0  14439-5 0  9994
2 42959  86.3962  55.5672 0002051  87.1703 272.9727 14.34217514444414
IRIDIUM 107             
1 42960U 17061F   26095.86555257  .00000398  00000+0  13518-3 0  9991
2 42960  86.3961  55.4925 0002220  94.6270 265.5180 14.34215588444459
IRIDIUM 132             
1 42961U 17061G   26095.87188051  .00000390  00000+0  13212-3 0  9990
2 42961  86.3960  55.4697 0002244  88.9577 271.1876 14.34220124444454
IRIDIUM 136             
1 42962U 17061H   26095.83382743  .00000259  00000+0  85460-4 0  9990
2 42962  86.3958  55.4919 0002179  90.1402 270.0043 14.34215645444465
IRIDIUM 139             
1 42963U 17061J   26095.63086025  .00000363  00000+0  12243-3 0  9997
2 42963  86.3959  55.6376 0002316  88.9738 271.1723 14.34214830444446
IRIDIUM 125             
1 42964U 17061K   26095.82748409  .00000036  00000+0  57202-5 0  9993
2 42964  86.3960  55.6152 0001770  97.6366 262.5031 14.34217502444487
IRIDIUM 135             
1 43070U 17083A   26095.73184095  .00000170  00000+0  53482-4 0  9995
2 43070  86.4016 352.3056 0002172  85.0849 275.0594 14.34218906433764
IRIDIUM 138             
1 43071U 17083B   26095.75721166  .00000053  00000+0  11844-4 0  9990
2 43071  86.4027 351.9795 0001787  82.4721 277.6678 14.34217913433750
IRIDIUM 116             
1 43072U 17083C   26095.72549876  .00000365  00000+0  12338-3 0  9998
2 43072  86.4014 352.2951 0002416  87.3459 272.8013 14.34219369433787
IRIDIUM 130             
1 43073U 17083D   26095.76355453  .00000147  00000+0  45489-4 0  9991
2 43073  86.4023 352.5473 0002275  91.4485 268.6971 14.34218540433739
