[{"OBJECT_NAME":"IRIDIUM 124","OBJECT_ID":"2017-039H","EPOCH":"2026-04-05T21:06:00.383040","MEAN_MOTION":14.43296232,"ECCENTRICITY":0.0002153,"INCLINATION":86.4486,"RA_OF_ASC_NODE":320.6147,"ARG_OF_PERICENTER":88.7824,"MEAN_ANOMALY":271.3624,"EPHEMERIS_TYPE":0,"CLASSIFICATION_TYPE":"U","NORAD_CAT_ID":42810,"ELEMENT_SET_NO":999,"REV_AT_EPOCH":46468,"BSTAR":0.00012865,"MEAN_MOTION_DOT":4.53e-6,"MEAN_MOTION_DDOT":0},{"OBJECT_NAME":"IRIDIUM 128","OBJECT_ID":"2017-039J","EPOCH":"2026-04-05T20:37:14.641536","MEAN_MOTION":14.3421613,"ECCENTRICITY":0.0002318,"INCLINATION":86.3963,"RA_OF_ASC_NODE":55.3775,"ARG_OF_PERICENTER":82.9696,"MEAN_ANOMALY":277.1763,"EPHEMERIS_TYPE":0,"CLASSIFICATION_TYPE":"U","NORAD_CAT_ID":42811,"ELEMENT_SET_NO":999,"REV_AT_EPOCH":45961,"BSTAR":0.00010937,"MEAN_MOTION_DOT":3.26e-6,"MEAN_MOTION_DDOT":0},{"OBJECT_NAME":"IRIDIUM 121","OBJECT_ID":"2017-039K","EPOCH":"2026-04-05T19:37:30.551808","MEAN_MOTION":14.34218831,"ECCENTRICITY":0.0002231,"INCLINATION":86.4017,"RA_OF_ASC_NODE":23.9054,"ARG_OF_PERICENTER":84.5071,"MEAN_ANOMALY":275.6379,"EPHEMERIS_TYPE":0,"CLASSIFICATION_TYPE":"U","NORAD_CAT_ID":42812,"ELEMENT_SET_NO":999,"REV_AT_EPOCH":45945,"BSTAR":6.3209e-6,"MEAN_MOTION_DOT":3.7e-7,"MEAN_MOTION_DDOT":0},{"OBJECT_NAME":"IRIDIUM 133","OBJECT_ID":"2017-061A","EPOCH":"2026-04-05T19:42:26.756928","MEAN_MOTION":14.34217089,"ECCENTRICITY":0.0002156,"INCLINATION":86.3956,"RA_OF_ASC_NODE":55.5085,"ARG_OF_PERICENTER":87.8501,"MEAN_ANOMALY":272.2942,"EPHEMERIS_TYPE":0,"CLASSIFICATION_TYPE":"U","NORAD_CAT_ID":42955,"ELEMENT_SET_NO":999,"REV_AT_EPOCH":44440,"BSTAR":-6.8338e-5,"MEAN_MOTION_DOT":-1.72e-6,"MEAN_MOTION_DDOT":0},{"OBJECT_NAME":"IRIDIUM 100","OBJECT_ID":"2017-061B","EPOCH":"2026-04-05T19:33:18.663840","MEAN_MOTION":14.34217956,"ECCENTRICITY":0.0002221,"INCLINATION":86.3957,"RA_OF_ASC_NODE":55.431,"ARG_OF_PERICENTER":89.0122,"MEAN_ANOMALY":271.1328,"EPHEMERIS_TYPE":0,"CLASSIFICATION_TYPE":"U","NORAD_CAT_ID":42956,"ELEMENT_SET_NO":999,"REV_AT_EPOCH":44440,"BSTAR":1.5244e-5,"MEAN_MOTION_DOT":6.2e-7,"MEAN_MOTION_DDOT":0},{"OBJECT_NAME":"IRIDIUM 122","OBJECT_ID":"2017-061C","EPOCH":"2026-04-05T20:28:06.662496","MEAN_MOTION":14.34217578,"ECCENTRICITY":0.0002151,"INCLINATION":86.396,"RA_OF_ASC_NODE":55.4152,"ARG_OF_PERICENTER":88.4406,"MEAN_ANOMALY":271.7036,"EPHEMERIS_TYPE":0,"CLASSIFICATION_TYPE":"U","NORAD_CAT_ID":42957,"ELEMENT_SET_NO":999,"REV_AT_EPOCH":44441,"BSTAR":4.3751e-5,"MEAN_MOTION_DOT":1.42e-6,"MEAN_MOTION_DDOT":0},{"OBJECT_NAME":"IRIDIUM 129","OBJECT_ID":"2017-061D","EPOCH":"2026-04-05T21:04:38.365248","MEAN_MOTION":14.34220073,"ECCENTRICITY":0.0002048,"INCLINATION":86.3959,"RA_OF_ASC_NODE":55.4709,"ARG_OF_PERICENTER":79.3785,"MEAN_ANOMALY":280.7641,"EPHEMERIS_TYPE":0,"CLASSIFICATION_TYPE":"U","NORAD_CAT_ID":42958,"ELEMENT_SET_NO":999,"REV_AT_EPOCH":44443,"BSTAR":0.00012056,"MEAN_MOTION_DOT":3.57e-6,"MEAN_MOTION_DDOT":0},{"OBJECT_NAME":"IRIDIUM 119","OBJECT_ID":"2017-061E","EPOCH":"2026-04-05T15:17:34.702080","MEAN_MOTION":14.34217514,"ECCENTRICITY":0.0002051,"INCLINATION":86.3962,"RA_OF_ASC_NODE":55.5672,"ARG_OF_PERICENTER":87.1703,"MEAN_ANOMALY":272.9727,"EPHEMERIS_TYPE":0,"CLASSIFICATION_TYPE":"U","NORAD_CAT_ID":42959,"ELEMENT_SET_NO":999,"REV_AT_EPOCH":44441,"BSTAR":1.4439e-6,"MEAN_MOTION_DOT":2.4e-7,"MEAN_MOTION_DDOT":0},{"OBJECT_NAME":"IRIDIUM 107","OBJECT_ID":"2017-061F","EPOCH":"2026-04-05T20:46:23.742048","MEAN_MOTION":14.34215588,"ECCENTRICITY":0.000222,"INCLINATION":86.3961,"RA_OF_ASC_NODE":55.4925,"ARG_OF_PERICENTER":94.627,"MEAN_ANOMALY":265.518,"EPHEMERIS_TYPE":0,"CLASSIFICATION_TYPE":"U","NORAD_CAT_ID":42960,"ELEMENT_SET_NO":999,"REV_AT_EPOCH":44445,"BSTAR":0.00013518,"MEAN_MOTION_DOT":3.98e-6,"MEAN_MOTION_DDOT":0},{"OBJECT_NAME":"IRIDIUM 132","OBJECT_ID":"2017-061G","EPOCH":"2026-04-05T20:55:30.476064","MEAN_MOTION":14.34220124,"ECCENTRICITY":0.0002244,"INCLINATION":86.396,"RA_OF_ASC_NODE":55.4697,"ARG_OF_PERICENTER":88.9577,"MEAN_ANOMALY":271.1876,"EPHEMERIS_TYPE":0,"CLASSIFICATION_TYPE":"U","NORAD_CAT_ID":42961,"ELEMENT_SET_NO":999,"REV_AT_EPOCH":44445,"BSTAR":0.00013212,"MEAN_MOTION_DOT":3.9e-6,"MEAN_MOTION_DDOT":0},{"OBJECT_NAME":"IRIDIUM 136","OBJECT_ID":"2017-061H","EPOCH":"2026-04-05T20:00:42.689952","MEAN_MOTION":14.34215645,"ECCENTRICITY":0.0002179,"INCLINATION":86.3958,"RA_OF_ASC_NODE":55.4919,"ARG_OF_PERICENTER":90.1402,"MEAN_ANOMALY":270.0043,"EPHEMERIS_TYPE":0,"CLASSIFICATION_TYPE":"U","NORAD_CAT_ID":42962,"ELEMENT_SET_NO":999,"REV_AT_EPOCH":44446,"BSTAR":8.546e-5,"MEAN_MOTION_DOT":2.59e-6,"MEAN_MOTION_DDOT":0},{"OBJECT_NAME":"IRIDIUM 139","OBJECT_ID":"2017-061J","EPOCH":"2026-04-05T15:08:26.325600","MEAN_MOTION":14.3421483,"ECCENTRICITY":0.0002316,"INCLINATION":86.3959,"RA_OF_ASC_NODE":55.6376,"ARG_OF_PERICENTER":88.9738,"MEAN_ANOMALY":271.1723,"EPHEMERIS_TYPE":0,"CLASSIFICATION_TYPE":"U","NORAD_CAT_ID":42963,"ELEMENT_SET_NO":999,"REV_AT_EPOCH":44444,"BSTAR":0.00012243,"MEAN_MOTION_DOT":3.63e-6,"MEAN_MOTION_DDOT":0},{"OBJECT_NAME":"IRIDIUM 125","OBJECT_ID":"2017-061K","EPOCH":"2026-04-05T19:51:34.625376","MEAN_MOTION":14.34217502,"ECCENTRICITY":0.000177,"INCLINATION":86.396,"RA_OF_ASC_NODE":55.6152,"ARG_OF_PERICENTER":97.6366,"MEAN_ANOMALY":262.5031,"EPHEMERIS_TYPE":0,"CLASSIFICATION_TYPE":"U","NORAD_CAT_ID":42964,"ELEMENT_SET_NO":999,"REV_AT_EPOCH":44448,"BSTAR":5.7202e-6,"MEAN_MOTION_DOT":3.6e-7,"MEAN_MOTION_DDOT":0},{"OBJECT_NAME":"IRIDIUM 135","OBJECT_ID":"2017-083A","EPOCH":"2026-04-05T17:33:51.058080","MEAN_MOTION":14.34218906,"ECCENTRICITY":0.0002172,"INCLINATION":86.4016,"RA_OF_ASC_NODE":352.3056,"ARG_OF_PERICENTER":85.0849,"MEAN_ANOMALY":275.0594,"EPHEMERIS_TYPE":0,"CLASSIFICATION_TYPE":"U","NORAD_CAT_ID":43070,"ELEMENT_SET_NO":999,"REV_AT_EPOCH":43376,"BSTAR":5.3482e-5,"MEAN_MOTION_DOT":1.7e-6,"MEAN_MOTION_DDOT":0},{"OBJECT_NAME":"IRIDIUM 138","OBJECT_ID":"2017-083B","EPOCH":"2026-04-05T18:10:23.087424","MEAN_MOTION":14.34217913,"ECCENTRICITY":0.0001787,"INCLINATION":86.4027,"RA_OF_ASC_NODE":351.9795,"ARG_OF_PERICENTER":82.4721,"MEAN_ANOMALY":277.6678,"EPHEMERIS_TYPE":0,"CLASSIFICATION_TYPE":"U","NORAD_CAT_ID":43071,"ELEMENT_SET_NO":999,"REV_AT_EPOCH":43375,"BSTAR":1.1844e-5,"MEAN_MOTION_DOT":5.3e-7,"MEAN_MOTION_DDOT":0},{"OBJECT_NAME":"IRIDIUM 116","OBJECT_ID":"2017-083C","EPOCH":"2026-04-05T17:24:43.092864","MEAN_MOTION":14.34219369,"ECCENTRICITY":0.0002416,"INCLINATION":86.4014,"RA_OF_ASC_NODE":352.2951,"ARG_OF_PERICENTER":87.3459,"MEAN_ANOMALY":272.8013,"EPHEMERIS_TYPE":0,"CLASSIFICATION_TYPE":"U","NORAD_CAT_ID":43072,"ELEMENT_SET_NO":999,"REV_AT_EPOCH":43378,"BSTAR":0.00012338,"MEAN_MOTION_DOT":3.65e-6,"MEAN_MOTION_DDOT":0},{"OBJECT_NAME":"IRIDIUM 130","OBJECT_ID":"2017-083D","EPOCH":"2026-04-05T18:19:31.111392","MEAN_MOTION":14.3421854,"ECCENTRICITY":0.0002275,"INCLINATION":86.4023,"RA_OF_ASC_NODE":352.5473,"ARG_OF_PERICENTER":91.4485,"MEAN_ANOMALY":268.6971,"EPHEMERIS_TYPE":0,"CLASSIFICATION_TYPE":"U","NORAD_CAT_ID":43073,"ELEMENT_SET_NO":999,"REV_AT_EPOCH":43373,"BSTAR":4.5489e-5,"MEAN_MOTION_DOT":1.47e-6,"MEAN_MOTION_DDOT":0}]
